ORBCOMM FM20            
1 25416U 98046D   25106.73688971  .00001711  00000+0  61845-3 0  9994
2 25416  44.9931 112.2544 0002766 295.1049  64.9512 14.37058019395462
ORBCOMM FM16            
1 25417U 98046E   25106.87407505  .00006279  00000+0  20711-2 0  9992
2 25417  44.9918 103.9694 0005992 329.2624  30.7873 14.38711801395640
ORBCOMM FM15            
1 25418U 98046F   25106.69624385  .00002352  00000+0  81085-3 0  9990
2 25418  44.9949 109.7755 0005536 326.4968  33.5529 14.38350865395560
ORBCOMM FM14            
1 25419U 98046G   25106.72924296  .00002398  00000+0  82012-3 0  9990
2 25419  44.9939 108.0301 0004679 317.3695  42.6790 14.38695919395587
ORBCOMM FM13            
1 25420U 98046H   25106.37381205  .00002320  00000+0  81437-3 0  9995
2 25420  44.9949 117.1016 0006807 312.8345  47.1930 14.37495611394346
ORBCOMM FM21            
1 25475U 98053A   25105.74095605  .00001955  00000+0  69793-3 0  9993
2 25475  45.0071 205.1864 0002992 244.2242 115.8297 14.37201499388260
ORBCOMM FM22            
1 25476U 98053B   25106.58639273  .00002361  00000+0  81642-3 0  9991
2 25476  45.0061 196.5240 0004832 257.5739 102.4569 14.38196684388404
ORBCOMM FM23            
1 25477U 98053C   25106.51383353  .00002169  00000+0  76651-3 0  9990
2 25477  45.0069 203.7338 0003968 250.2808 109.7613 14.37366316388521
